COSMOS 2419 (714)       
1 28915U 05050A   17276.10748997  .00000012  00000-0  00000+0 0  9995
2 28915  65.5496  62.2186 0015833 358.3352  77.4010  2.13106693 91635
COSMOS 2425 (716)       
1 29670U 06062A   17276.13257428  .00000038  00000-0  10000-3 0  9998
2 29670  65.4074 301.2228 0020316 338.1968 168.2775  2.13104986 83832
COSMOS 2426 (717)       
1 29671U 06062B   17276.07289419  .00000038  00000-0  10000-3 0  9997
2 29671  65.4252 301.3169 0018489 173.8404 144.3961  2.13103253 83831
COSMOS 2424 (715)       
1 29672U 06062C   17275.56850266  .00000038  00000-0  10000-3 0  9995
2 29672  65.4099 301.2539 0018118 172.2455 294.1175  2.13102370 83828
COSMOS 2433 (720)       
1 32275U 07052A   17275.93483243  .00000012  00000-0  10000-3 0  9998
2 32275  65.5653  62.0054 0001420 198.2020 348.4978  2.13104652 77345
COSMOS 2432 (719)       
1 32276U 07052B   17276.07538706  .00000012  00000-0  10000-3 0  9990
2 32276  65.5775  62.0739 0009553 344.1483 263.0273  2.13103941 77341
COSMOS 2434 (721)       
1 32393U 07065A   17275.56652483  .00000038  00000-0  00000-0 0  9990
2 32393  65.0245 300.3407 0003402 155.8767 357.3497  2.13102950 76047
COSMOS 2436 (723)       
1 32395U 07065C   17275.79396626  .00000038  00000-0  10000-3 0  9995
2 32395  65.0340 300.3789 0013478 350.3451  26.5962  2.13104327 75988
COSMOS 2443 (725)       
1 33379U 08046B   17276.30847310  .00000009  00000-0  00000+0 0  9990
2 33379  65.4957  61.3656 0012993 176.9213 194.9431  2.13099509 70223
COSMOS 2456 (730)       
1 36111U 09070A   17275.65360682  .00000006  00000-0  00000-0 0  9992
2 36111  64.1799 179.9026 0004754 313.3762  78.1327  2.13102991 60719
COSMOS 2457 (733)       
1 36112U 09070B   17275.61141501  .00000006  00000-0  00000+0 0  9995
2 36112  64.1621 179.8209 0006054 172.0634 315.1547  2.13101756 60715
COSMOS 2458 (734)       
1 36113U 09070C   17275.67311132  .00000006  00000-0  10000-3 0  9996
2 36113  64.1683 179.8272 0001623 352.4138 230.2070  2.13101857 60714
COSMOS 2459 (731)       
1 36400U 10007A   17275.88856079  .00000010  00000-0  10000-3 0  9999
2 36400  65.4750  61.0996 0025928 356.6447  15.7364  2.13102190 59070
COSMOS 2461 (735)       
1 36401U 10007B   17276.42791650  .00000008  00000-0  10000-3 0  9991
2 36401  65.4668  61.0580 0008409  80.2136 256.5595  2.13102159 59074
COSMOS 2460 (732)       
1 36402U 10007C   17275.57007620  .00000010  00000-0  10000-3 0  9997
2 36402  65.4575  61.0579 0002360 113.2889 326.4458  2.13101728 59067
COSMOS 2465 (737)       
1 37138U 10041B   17276.14255601  .00000037  00000-0  00000+0 0  9994
2 37138  64.6209 300.2540 0036514 172.5551 105.7580  2.13097509 55147
COSMOS 2464 (736)       
1 37139U 10041C   17276.13770736  .00000037  00000-0  00000+0 0  9995
2 37139  64.6282 300.2536 0021237   7.1253  92.0345  2.13102728 55149
COSMOS 2471 (701K)      
1 37372U 11009A   17275.70389988  .00000010  00000-0  00000+0 0  9997
2 37372  65.4548  61.0010 0007381 220.8373  99.9888  2.13107641 51336
COSMOS 2474 (742)       
1 37829U 11055A   17276.44890495  .00000014  00000-0  00000+0 0  9991
2 37829  64.5038 180.4848 0008677 250.0120 250.9273  2.13101971 46720
COSMOS 2476 (744)       
1 37867U 11064A   17275.92837657  .00000009  00000-0  00000-0 0  9991
2 37867  64.4848 180.5725 0018124 243.8237 263.7499  2.13101986 46067
COSMOS 2477 (745)       
1 37868U 11064B   17276.16255582  .00000011  00000-0  00000+0 0  9992
2 37868  64.4923 180.6099 0015896 244.8810 261.4188  2.13101924 46026
COSMOS 2475 (743)       
1 37869U 11064C   17275.95058862  .00000009  00000-0  00000-0 0  9999
2 37869  64.4998 180.6090 0020718 270.5987  29.5898  2.13102237 46029
COSMOS 2485 (747)       
1 39155U 13019A   17276.42099642  .00000014  00000-0  00000+0 0  9990
2 39155  64.6541 180.6084 0018471 238.4820 332.0059  2.13102089 34540
COSMOS 2492 (754)       
1 39620U 14012A   17275.69674819  .00000010  00000-0  10000-3 0  9995
2 39620  65.3476  60.9752 0012791 336.7172  72.5134  2.13103375 27489
COSMOS 2500 (755)       
1 40001U 14032A   17275.66541944  .00000010  00000-0  00000+0 0  9996
2 40001  65.2893  60.9657 0006415 185.5903  62.4381  2.13102786 25696
COSMOS 2501 (702K)      
1 40315U 14075A   17276.16329428  .00000034  00000-0  00000+0 0  9994
2 40315  64.3542 301.5568 0017016 211.1923 223.4696  2.13098615 22114
COSMOS 2514 (751)       
1 41330U 16008A   17276.16838841  .00000008  00000-0  00000+0 0  9995
2 41330  65.0892  61.0656 0009132 201.3327 252.8133  2.13103336 12874
COSMOS 2516 (753)       
1 41554U 16032A   17276.37481347  .00000035  00000-0  00000+0 0  9998
2 41554  64.5750 301.3414 0014626 223.3478 281.2111  2.13101670 10482
